[
    {
        "Altitude(m)": 605470.7855493013,
        "Argument of Periapsis(deg)": 0.0,
        "Eccentricity": 0.0,
        "Inclination(deg)": 60.0,
        "Latitude(deg)": 27.98819170186802,
        "Longitude(deg)": 42.26289572115406,
        "Mean Anomaly(deg)": -212.72730000000004,
        "RAAN(deg)": 340.00000000000006,
        "Satellite Name": "Test1 1505",
        "Satellite Number": 1505,
        "Semi-Major Axis(m)": 6980739.136638005,
        "Time(s)": 0
    },
    {
        "Altitude(m)": 605395.8236703745,
        "Argument of Periapsis(deg)": 0.00010418945913296404,
        "Eccentricity": 0.0,
        "Inclination(deg)": 60.0,
        "Latitude(deg)": 27.473882998494233,
        "Longitude(deg)": 42.61608456106754,
        "Mean Anomaly(deg)": -212.1071938545382,
        "RAAN(deg)": 339.99957995086027,
        "Satellite Name": "Test1 1505",
        "Satellite Number": 1505,
        "Semi-Major Axis(m)": 6980739.136638005,
        "Time(s)": 10
    },
    {
        "Altitude(m)": 605322.6644454041,
        "Argument of Periapsis(deg)": 0.0002083789182659281,
        "Eccentricity": 0.0,
        "Inclination(deg)": 60.0,
        "Latitude(deg)": 26.95842849406436,
        "Longitude(deg)": 42.96562518947317,
        "Mean Anomaly(deg)": -211.48708770907638,
        "RAAN(deg)": 339.99915990172053,
        "Satellite Name": "Test1 1505",
        "Satellite Number": 1505,
        "Semi-Major Axis(m)": 6980739.136638005,
        "Time(s)": 20
    },
    {
        "Altitude(m)": 605251.363548812,
        "Argument of Periapsis(deg)": 0.00031256837739889213,
        "Eccentricity": 0.0,
        "Inclination(deg)": 60.0,
        "Latitude(deg)": 26.441862691104877,
        "Longitude(deg)": 43.31162225619223,
        "Mean Anomaly(deg)": -210.86698156361456,
        "RAAN(deg)": 339.9987398525808,
        "Satellite Name": "Test1 1505",
        "Satellite Number": 1505,
        "Semi-Major Axis(m)": 6980739.136638005,
        "Time(s)": 30
    },
    {
        "Altitude(m)": 605181.9759270949,
        "Argument of Periapsis(deg)": 0.0004167578365318562,
        "Eccentricity": 0.0,
        "Inclination(deg)": 60.0,
        "Latitude(deg)": 25.924219237845666,
        "Longitude(deg)": 43.65417867857243,
        "Mean Anomaly(deg)": -210.2468754181527,
        "RAAN(deg)": 339.99831980344106,
        "Satellite Name": "Test1 1505",
        "Satellite Number": 1505,
        "Semi-Major Axis(m)": 6980739.136638005,
        "Time(s)": 40
    },
    {
        "Altitude(m)": 605114.5557698624,
        "Argument of Periapsis(deg)": 0.0005209472956648203,
        "Eccentricity": 0.0,
        "Inclination(deg)": 60.0,
        "Latitude(deg)": 25.405530960773103,
        "Longitude(deg)": 43.99339469760957,
        "Mean Anomaly(deg)": -209.62676927269084,
        "RAAN(deg)": 339.99789975430133,
        "Satellite Name": "Test1 1505",
        "Satellite Number": 1505,
        "Semi-Major Axis(m)": 6980739.136638005,
        "Time(s)": 50
    },
    {
        "Altitude(m)": 605049.1564812305,
        "Argument of Periapsis(deg)": 0.0006251367547977843,
        "Eccentricity": 0.0,
        "Inclination(deg)": 60.0,
        "Latitude(deg)": 24.88582989606799,
        "Longitude(deg)": 44.32936844614511,
        "Mean Anomaly(deg)": -209.006663127229,
        "RAAN(deg)": 339.99747970516154,
        "Satellite Name": "Test1 1505",
        "Satellite Number": 1505,
        "Semi-Major Axis(m)": 6980739.136638005,
        "Time(s)": 60
    },
    {
        "Altitude(m)": 604985.8306515192,
        "Argument of Periapsis(deg)": 0.0007293262139307483,
        "Eccentricity": 0.0,
        "Inclination(deg)": 60.0,
        "Latitude(deg)": 24.365147319967345,
        "Longitude(deg)": 44.66219651620556,
        "Mean Anomaly(deg)": -208.38655698176717,
        "RAAN(deg)": 339.99705965602186,
        "Satellite Name": "Test1 1505",
        "Satellite Number": 1505,
        "Semi-Major Axis(m)": 6980739.136638005,
        "Time(s)": 70
    },
    {
        "Altitude(m)": 604924.6300293636,
        "Argument of Periapsis(deg)": 0.0008335156730637124,
        "Eccentricity": 0.0,
        "Inclination(deg)": 60.0,
        "Latitude(deg)": 23.843513778083743,
        "Longitude(deg)": 44.991973012564486,
        "Mean Anomaly(deg)": -207.76645083630532,
        "RAAN(deg)": 339.9966396068821,
        "Satellite Name": "Test1 1505",
        "Satellite Number": 1505,
        "Semi-Major Axis(m)": 6980739.136638005,
        "Time(s)": 80
    },
    {
        "Altitude(m)": 604865.6054941409,
        "Argument of Periapsis(deg)": 0.0009377051321966765,
        "Eccentricity": 0.0,
        "Inclination(deg)": 60.0,
        "Latitude(deg)": 23.32095911372669,
        "Longitude(deg)": 45.318790118231185,
        "Mean Anomaly(deg)": -207.14634469084348,
        "RAAN(deg)": 339.99621955774234,
        "Satellite Name": "Test1 1505",
        "Satellite Number": 1505,
        "Semi-Major Axis(m)": 6980739.136638005,
        "Time(s)": 90
    },
    {
        "Altitude(m)": 604808.8070288134,
        "Argument of Periapsis(deg)": 0.0010418945913296407,
        "Eccentricity": 0.0,
        "Inclination(deg)": 60.0,
        "Latitude(deg)": 22.797512495257617,
        "Longitude(deg)": 45.64273865896597,
        "Mean Anomaly(deg)": -206.52623854538172,
        "RAAN(deg)": 339.99579950860254,
        "Satellite Name": "Test1 1505",
        "Satellite Number": 1505,
        "Semi-Major Axis(m)": 6980739.136638005,
        "Time(s)": 100
    },
    {
        "Altitude(m)": 604754.2836931692,
        "Argument of Periapsis(deg)": 0.0011460840504626045,
        "Eccentricity": 0.0,
        "Inclination(deg)": 60.0,
        "Latitude(deg)": 22.273202442514318,
        "Longitude(deg)": 45.96390715391927,
        "Mean Anomaly(deg)": -205.90613239991984,
        "RAAN(deg)": 339.99537945946287,
        "Satellite Name": "Test1 1505",
        "Satellite Number": 1505,
        "Semi-Major Axis(m)": 6980739.136638005,
        "Time(s)": 110
    },
    {
        "Altitude(m)": 604702.0835974654,
        "Argument of Periapsis(deg)": 0.0012502735095955685,
        "Eccentricity": 0.0,
        "Inclination(deg)": 60.0,
        "Latitude(deg)": 21.748056852344238,
        "Longitude(deg)": 46.282382378127494,
        "Mean Anomaly(deg)": -205.28602625445808,
        "RAAN(deg)": 339.9949594103231,
        "Satellite Name": "Test1 1505",
        "Satellite Number": 1505,
        "Semi-Major Axis(m)": 6980739.136638005,
        "Time(s)": 120
    },
    {
        "Altitude(m)": 604652.2538765137,
        "Argument of Periapsis(deg)": 0.0013544629687285324,
        "Eccentricity": 0.0,
        "Inclination(deg)": 60.0,
        "Latitude(deg)": 21.222103023276293,
        "Longitude(deg)": 46.59824992398043,
        "Mean Anomaly(deg)": -204.66592010899623,
        "RAAN(deg)": 339.99453936118334,
        "Satellite Name": "Test1 1505",
        "Satellite Number": 1505,
        "Semi-Major Axis(m)": 6980739.136638005,
        "Time(s)": 130
    },
    {
        "Altitude(m)": 604604.8406642062,
        "Argument of Periapsis(deg)": 0.0014586524278614966,
        "Eccentricity": 0.0,
        "Inclination(deg)": 60.0,
        "Latitude(deg)": 20.695367679365912,
        "Longitude(deg)": 46.91159324877749,
        "Mean Anomaly(deg)": -204.04581396353439,
        "RAAN(deg)": 339.9941193120436,
        "Satellite Name": "Test1 1505",
        "Satellite Number": 1505,
        "Semi-Major Axis(m)": 6980739.136638005,
        "Time(s)": 140
    },
    {
        "Altitude(m)": 604559.8890684862,
        "Argument of Periapsis(deg)": 0.0015628418869944607,
        "Eccentricity": 0.0,
        "Inclination(deg)": 60.0,
        "Latitude(deg)": 20.167876993247116,
        "Longitude(deg)": 47.22249423412105,
        "Mean Anomaly(deg)": -203.42570781807257,
        "RAAN(deg)": 339.9936992629039,
        "Satellite Name": "Test1 1505",
        "Satellite Number": 1505,
        "Semi-Major Axis(m)": 6980739.136638005,
        "Time(s)": 150
    },
    {
        "Altitude(m)": 604517.4431467999,
        "Argument of Periapsis(deg)": 0.0016670313461274247,
        "Eccentricity": 0.0,
        "Inclination(deg)": 60.0,
        "Latitude(deg)": 19.639656608422374,
        "Longitude(deg)": 47.53103374427488,
        "Mean Anomaly(deg)": -202.80560167261072,
        "RAAN(deg)": 339.99327921376414,
        "Satellite Name": "Test1 1505",
        "Satellite Number": 1505,
        "Semi-Major Axis(m)": 6980739.136638005,
        "Time(s)": 160
    },
    {
        "Altitude(m)": 604477.545882038,
        "Argument of Periapsis(deg)": 0.0017712208052603888,
        "Eccentricity": 0.0,
        "Inclination(deg)": 60.0,
        "Latitude(deg)": 19.110731660819432,
        "Longitude(deg)": 47.83729067061865,
        "Mean Anomaly(deg)": -202.18549552714884,
        "RAAN(deg)": 339.9928591646244,
        "Satellite Name": "Test1 1505",
        "Satellite Number": 1505,
        "Semi-Major Axis(m)": 6980739.136638005,
        "Time(s)": 170
    },
    {
        "Altitude(m)": 604440.2391589574,
        "Argument of Periapsis(deg)": 0.001875410264393353,
        "Eccentricity": 0.0,
        "Inclination(deg)": 60.0,
        "Latitude(deg)": 18.581126799647546,
        "Longitude(deg)": 48.14134248795766,
        "Mean Anomaly(deg)": -201.5653893816871,
        "RAAN(deg)": 339.9924391154846,
        "Satellite Name": "Test1 1505",
        "Satellite Number": 1505,
        "Semi-Major Axis(m)": 6980739.136638005,
        "Time(s)": 180
    },
    {
        "Altitude(m)": 604405.5637411266,
        "Argument of Periapsis(deg)": 0.0019795997235263173,
        "Eccentricity": 0.0,
        "Inclination(deg)": 60.0,
        "Latitude(deg)": 18.050866207581567,
        "Longitude(deg)": 48.44326580982531,
        "Mean Anomaly(deg)": -200.9452832362252,
        "RAAN(deg)": 339.99201906634494,
        "Satellite Name": "Test1 1505",
        "Satellite Number": 1505,
        "Semi-Major Axis(m)": 6980739.136638005,
        "Time(s)": 190
    }
]